IRIDIUM 150             
1 43257U 18030J   25349.79647098  .00000267  00000+0  88361-4 0  9990
2 43257  86.3967   7.1302 0002357  94.9585 265.1880 14.34214470403874
IRIDIUM 143             
1 43258U 18030K   25349.77744600  .00000355  00000+0  11979-3 0  9994
2 43258  86.3972   7.2238 0002473  94.7949 265.3529 14.34215571403809
IRIDIUM 161             
1 43478U 18047C   25349.92758631  .00000136  00000+0  34474-4 0  9995
2 43478  86.4506 165.0490 0001867  86.3513 273.7901 14.43280127398708
IRIDIUM 152             
1 43479U 18047D   25349.88970092 -.00000050  00000+0 -25066-4 0  9992
2 43479  86.3986 164.9254 0001721  90.6931 269.4462 14.34217278396212
IRIDIUM 147             
1 43480U 18047E   25349.89604258  .00000010  00000+0 -35138-5 0  9990
2 43480  86.3987 164.9248 0001899  86.6790 273.4623 14.34217338396213
IRIDIUM 110             
1 43481U 18047F   25349.90238148  .00000093  00000+0  26320-4 0  9996
2 43481  86.3986 165.0090 0001585  80.3899 279.7476 14.34218241396201
IRIDIUM 162             
1 43482U 18047G   25349.92128439  .00000154  00000+0  39673-4 0  9993
2 43482  86.4505 164.9450 0001825  98.3879 261.7529 14.43278415398696
IRIDIUM 160             
1 43569U 18061A   25349.91799206  .00000290  00000+0  96326-4 0  9999
2 43569  86.3975 133.4244 0001894  86.7194 273.4218 14.34216083387103
